[{"OBJECT_NAME":"STARLINK-34240","OBJECT_ID":"2025-120K","EPOCH":"2026-03-09T12:15:33.545952","MEAN_MOTION":15.30192145,"ECCENTRICITY":0.00013494,"INCLINATION":53.1594,"RA_OF_ASC_NODE":117.8863,"ARG_OF_PERICENTER":70.2304,"MEAN_ANOMALY":289.8842,"EPHEMERIS_TYPE":0,"CLASSIFICATION_TYPE":"U","NORAD_CAT_ID":64265,"ELEMENT_SET_NO":999,"REV_AT_EPOCH":4388,"BSTAR":0.0010257868,"MEAN_MOTION_DOT":0.00030138,"MEAN_MOTION_DDOT":0},{"OBJECT_NAME":"CZ-2D R\/B","OBJECT_ID":"2025-227B","EPOCH":"2026-03-09T22:11:26.043072","MEAN_MOTION":15.30393637,"ECCENTRICITY":0.00198129,"INCLINATION":80.1514,"RA_OF_ASC_NODE":267.3771,"ARG_OF_PERICENTER":270.3655,"MEAN_ANOMALY":89.5307,"EPHEMERIS_TYPE":0,"CLASSIFICATION_TYPE":"U","NORAD_CAT_ID":65946,"ELEMENT_SET_NO":999,"REV_AT_EPOCH":2254,"BSTAR":0.00032251975,"MEAN_MOTION_DOT":9.557e-5,"MEAN_MOTION_DDOT":0}]
